start=new Date('2022-11-22T00:00:00.000Z').valueOf();
sats=[{"EPHEMERIS_TYPE":"0","MEAN_MOTION":"15.08834697","REV_AT_EPOCH":"1519","SITE":"AFETR","DECAY_DATE":null,"TLE_LINE2":"2 53547  53.2161  69.5745 0001495  63.1811 296.9334 15.08834697 15192","MEAN_ELEMENT_THEORY":"SGP4","OBJECT_TYPE":"PAYLOAD","APOAPSIS":"540.796","TLE_LINE1":"1 53547U 22101W   22325.58011764 -.00001415  00000-0 -70824-4 0  9994","OBJECT_ID":"2022-101W","PERIAPSIS":"538.727","RCS_SIZE":"LARGE","PERIOD":"95.438","ECCENTRICITY":"0.00014950","TIME_SYSTEM":"UTC","CENTER_NAME":"EARTH","GP_ID":"218436290","REF_FRAME":"TEME","FILE":"3666658","EPOCH":"2022-11-21T13:55:22.164096","COUNTRY_CODE":"US","MEAN_ANOMALY":"296.9334","INCLINATION":"53.2161","CLASSIFICATION_TYPE":"U","MEAN_MOTION_DDOT":"0.0000000000000","ARG_OF_PERICENTER":"63.1811","OBJECT_NAME":"STARLINK-4474","LAUNCH_DATE":"2022-08-19","MEAN_MOTION_DOT":"-0.00001415","SEMIMAJOR_AXIS":"6917.897","RA_OF_ASC_NODE":"69.5745","BSTAR":"-0.00007082400000","NORAD_CAT_ID":"53547","ELEMENT_SET_NO":"999"},{"OBJECT_TYPE":"PAYLOAD","MEAN_ELEMENT_THEORY":"SGP4","REV_AT_EPOCH":"1452","DECAY_DATE":null,"SITE":"AFETR","TLE_LINE2":"2 53548  53.2181  69.6332 0001251  67.5617 292.5508 15.08847184 14526","EPHEMERIS_TYPE":"0","MEAN_MOTION":"15.08847184","RA_OF_ASC_NODE":"69.6332","NORAD_CAT_ID":"53548","BSTAR":"0.00007086900000","ELEMENT_SET_NO":"999","INCLINATION":"53.2181","ARG_OF_PERICENTER":"67.5617","MEAN_MOTION_DDOT":"0.0000000000000","CLASSIFICATION_TYPE":"U","OBJECT_NAME":"STARLINK-4513","MEAN_MOTION_DOT":"0.00000840","SEMIMAJOR_AXIS":"6917.858","LAUNCH_DATE":"2022-08-19","CENTER_NAME":"EARTH","TIME_SYSTEM":"UTC","REF_FRAME":"TEME","GP_ID":"218406116","FILE":"3666407","COUNTRY_CODE":"US","EPOCH":"2022-11-21T13:34:09.312384","MEAN_ANOMALY":"292.5508","OBJECT_ID":"2022-101X","TLE_LINE1":"1 53548U 22101X   22325.56538556  .00000840  00000-0  70869-4 0  9994","APOAPSIS":"540.589","ECCENTRICITY":"0.00012510","RCS_SIZE":"LARGE","PERIOD":"95.437","PERIAPSIS":"538.858"},{"REV_AT_EPOCH":"1523","DECAY_DATE":null,"SITE":"AFETR","TLE_LINE2":"2 53549  53.2171  68.1218 0001477  66.9925 293.1223 15.08838050 15230","OBJECT_TYPE":"PAYLOAD","MEAN_ELEMENT_THEORY":"SGP4","EPHEMERIS_TYPE":"0","MEAN_MOTION":"15.08838050","INCLINATION":"53.2171","ARG_OF_PERICENTER":"66.9925","MEAN_MOTION_DDOT":"0.0000000000000","CLASSIFICATION_TYPE":"U","OBJECT_NAME":"STARLINK-4516","SEMIMAJOR_AXIS":"6917.886","MEAN_MOTION_DOT":"-0.00001024","LAUNCH_DATE":"2022-08-19","RA_OF_ASC_NODE":"68.1218","NORAD_CAT_ID":"53549","BSTAR":"-0.00004622900000","ELEMENT_SET_NO":"999","OBJECT_ID":"2022-101Y","APOAPSIS":"540.773","TLE_LINE1":"1 53549U 22101Y   22325.90394996 -.00001024  00000-0 -46229-4 0  9991","RCS_SIZE":"LARGE","PERIOD":"95.438","ECCENTRICITY":"0.00014770","PERIAPSIS":"538.730","TIME_SYSTEM":"UTC","CENTER_NAME":"EARTH","REF_FRAME":"TEME","GP_ID":"218435306","FILE":"3666658","EPOCH":"2022-11-21T21:41:41.276544","COUNTRY_CODE":"US","MEAN_ANOMALY":"293.1223"},{"EPHEMERIS_TYPE":"0","MEAN_MOTION":"15.08853407","REV_AT_EPOCH":"1523","DECAY_DATE":null,"SITE":"AFETR","TLE_LINE2":"2 53550  53.2201  68.1641 0001504  57.4408 302.6729 15.08853407 15238","OBJECT_TYPE":"PAYLOAD","MEAN_ELEMENT_THEORY":"SGP4","OBJECT_ID":"2022-101Z","APOAPSIS":"540.745","TLE_LINE1":"1 53550U 22101Z   22325.89290660 -.00001029  00000-0 -46527-4 0  9990","PERIOD":"95.437","RCS_SIZE":"LARGE","ECCENTRICITY":"0.00015040","PERIAPSIS":"538.664","CENTER_NAME":"EARTH","TIME_SYSTEM":"UTC","GP_ID":"218435802","REF_FRAME":"TEME","FILE":"3666658","MEAN_ANOMALY":"302.6729","COUNTRY_CODE":"US","EPOCH":"2022-11-21T21:25:47.130240","INCLINATION":"53.2201","MEAN_MOTION_DDOT":"0.0000000000000","ARG_OF_PERICENTER":"57.4408","CLASSIFICATION_TYPE":"U","OBJECT_NAME":"STARLINK-4518","SEMIMAJOR_AXIS":"6917.839","MEAN_MOTION_DOT":"-0.00001029","LAUNCH_DATE":"2022-08-19","RA_OF_ASC_NODE":"68.1641","NORAD_CAT_ID":"53550","BSTAR":"-0.00004652700000","ELEMENT_SET_NO":"999"},{"MEAN_ELEMENT_THEORY":"SGP4","OBJECT_TYPE":"PAYLOAD","REV_AT_EPOCH":"1521","SITE":"AFETR","DECAY_DATE":null,"TLE_LINE2":"2 53551  53.2160  68.7325 0001562  64.4170 295.6983 15.08841364 15216","EPHEMERIS_TYPE":"0","MEAN_MOTION":"15.08841364","RA_OF_ASC_NODE":"68.7325","BSTAR":"-0.00001438500000","NORAD_CAT_ID":"53551","ELEMENT_SET_NO":"999","INCLINATION":"53.2160","CLASSIFICATION_TYPE":"U","ARG_OF_PERICENTER":"64.4170","MEAN_MOTION_DDOT":"0.0000000000000","OBJECT_NAME":"STARLINK-4514","LAUNCH_DATE":"2022-08-19","SEMIMAJOR_AXIS":"6917.876","MEAN_MOTION_DOT":"-0.00000517","TIME_SYSTEM":"UTC","CENTER_NAME":"EARTH","REF_FRAME":"TEME","GP_ID":"218435966","FILE":"3666658","COUNTRY_CODE":"US","EPOCH":"2022-11-21T18:25:38.564544","MEAN_ANOMALY":"295.6983","TLE_LINE1":"1 53551U 22101AA  22325.76780746 -.00000517  00000-0 -14385-4 0  9994","APOAPSIS":"540.822","OBJECT_ID":"2022-101AA","PERIAPSIS":"538.661","ECCENTRICITY":"0.00015620","RCS_SIZE":"LARGE","PERIOD":"95.437"},{"REF_FRAME":"TEME","GP_ID":"218436452","CENTER_NAME":"EARTH","TIME_SYSTEM":"UTC","COUNTRY_CODE":"US","EPOCH":"2022-11-21T16:29:02.499072","MEAN_ANOMALY":"308.4913","FILE":"3666658","ECCENTRICITY":"0.00019410","RCS_SIZE":"LARGE","PERIOD":"95.438","PERIAPSIS":"538.402","OBJECT_ID":"2022-101AB","APOAPSIS":"541.087","TLE_LINE1":"1 53552U 22101AB  22325.68683448 -.00000565  00000-0 -17401-4 0  9992","RA_OF_ASC_NODE":"69.0899","ELEMENT_SET_NO":"999","NORAD_CAT_ID":"53552","BSTAR":"-0.00001740100000","ARG_OF_PERICENTER":"51.6253","MEAN_MOTION_DDOT":"0.0000000000000","CLASSIFICATION_TYPE":"U","INCLINATION":"53.2208","MEAN_MOTION_DOT":"-0.00000565","SEMIMAJOR_AXIS":"6917.880","LAUNCH_DATE":"2022-08-19","OBJECT_NAME":"STARLINK-4495","EPHEMERIS_TYPE":"0","MEAN_MOTION":"15.08840265","OBJECT_TYPE":"PAYLOAD","MEAN_ELEMENT_THEORY":"SGP4","DECAY_DATE":null,"SITE":"AFETR","REV_AT_EPOCH":"1519","TLE_LINE2":"2 53552  53.2208  69.0899 0001941  51.6253 308.4913 15.08840265 15193"},{"OBJECT_NAME":"STARLINK-4501","LAUNCH_DATE":"2022-08-19","MEAN_MOTION_DOT":"-0.00000462","SEMIMAJOR_AXIS":"6917.854","INCLINATION":"53.2193","CLASSIFICATION_TYPE":"U","MEAN_MOTION_DDOT":"0.0000000000000","ARG_OF_PERICENTER":"66.9725","BSTAR":"-0.00001093700000","NORAD_CAT_ID":"53553","ELEMENT_SET_NO":"999","RA_OF_ASC_NODE":"69.0650","APOAPSIS":"540.771","TLE_LINE1":"1 53553U 22101AC  22325.69146715 -.00000462  00000-0 -10937-4 0  9998","OBJECT_ID":"2022-101AC","PERIAPSIS":"538.666","RCS_SIZE":"LARGE","ECCENTRICITY":"0.00015210","PERIOD":"95.437","FILE":"3666658","MEAN_ANOMALY":"293.1428","COUNTRY_CODE":"US","EPOCH":"2022-11-21T16:35:42.761760","CENTER_NAME":"EARTH","TIME_SYSTEM":"UTC","REF_FRAME":"TEME","GP_ID":"218435638","TLE_LINE2":"2 53553  53.2193  69.0650 0001521  66.9725 293.1428 15.08848769 15209","REV_AT_EPOCH":"1520","SITE":"AFETR","DECAY_DATE":null,"MEAN_ELEMENT_THEORY":"SGP4","OBJECT_TYPE":"PAYLOAD","MEAN_MOTION":"15.08848769","EPHEMERIS_TYPE":"0"},{"TLE_LINE2":"2 53554  53.2216  69.4216 0001623  58.8727 301.2424 15.08843208 14538","SITE":"AFETR","DECAY_DATE":null,"REV_AT_EPOCH":"1453","MEAN_ELEMENT_THEORY":"SGP4","OBJECT_TYPE":"PAYLOAD","MEAN_MOTION":"15.08843208","EPHEMERIS_TYPE":"0","LAUNCH_DATE":"2022-08-19","SEMIMAJOR_AXIS":"6917.871","MEAN_MOTION_DOT":"0.00001227","OBJECT_NAME":"STARLINK-4506","CLASSIFICATION_TYPE":"U","MEAN_MOTION_DDOT":"0.0000000000000","ARG_OF_PERICENTER":"58.8727","INCLINATION":"53.2216","ELEMENT_SET_NO":"999","BSTAR":"0.00009513500000","NORAD_CAT_ID":"53554","RA_OF_ASC_NODE":"69.4216","PERIAPSIS":"538.613","RCS_SIZE":"LARGE","ECCENTRICITY":"0.00016230","PERIOD":"95.437","APOAPSIS":"540.858","TLE_LINE1":"1 53554U 22101AD  22325.61323043  .00001227  00000-0  95135-4 0  9993","OBJECT_ID":"2022-101AD","MEAN_ANOMALY":"301.2424","COUNTRY_CODE":"US","EPOCH":"2022-11-21T14:43:03.109152","FILE":"3666658","GP_ID":"218435471","REF_FRAME":"TEME","CENTER_NAME":"EARTH","TIME_SYSTEM":"UTC"},{"EPHEMERIS_TYPE":"0","MEAN_MOTION":"15.08835389","SITE":"AFETR","DECAY_DATE":null,"REV_AT_EPOCH":"1520","TLE_LINE2":"2 53555  53.2196  69.0677 0001341  70.7446 289.3691 15.08835389 15209","MEAN_ELEMENT_THEORY":"SGP4","OBJECT_TYPE":"PAYLOAD","PERIAPSIS":"538.832","RCS_SIZE":"LARGE","ECCENTRICITY":"0.00013410","PERIOD":"95.438","APOAPSIS":"540.687","TLE_LINE1":"1 53555U 22101AE  22325.69051769 -.00001492  00000-0 -75652-4 0  9993","OBJECT_ID":"2022-101AE","GP_ID":"218436291","REF_FRAME":"TEME","TIME_SYSTEM":"UTC","CENTER_NAME":"EARTH","EPOCH":"2022-11-21T16:34:20.728416","COUNTRY_CODE":"US","MEAN_ANOMALY":"289.3691","FILE":"3666658","CLASSIFICATION_TYPE":"U","ARG_OF_PERICENTER":"70.7446","MEAN_MOTION_DDOT":"0.0000000000000","INCLINATION":"53.2196","LAUNCH_DATE":"2022-08-19","MEAN_MOTION_DOT":"-0.00001492","SEMIMAJOR_AXIS":"6917.894","OBJECT_NAME":"STARLINK-4504","RA_OF_ASC_NODE":"69.0677","ELEMENT_SET_NO":"999","BSTAR":"-0.00007565200000","NORAD_CAT_ID":"53555"},{"EPHEMERIS_TYPE":"0","MEAN_MOTION":"15.08845673","REV_AT_EPOCH":"1454","SITE":"AFETR","DECAY_DATE":null,"TLE_LINE2":"2 53556  53.2213  69.1612 0001669  48.3283 311.7852 15.08845673 14545","MEAN_ELEMENT_THEORY":"SGP4","OBJECT_TYPE":"PAYLOAD","TLE_LINE1":"1 53556U 22101AF  22325.67211187  .00000006  00000-0  18484-4 0  9992","APOAPSIS":"540.883","OBJECT_ID":"2022-101AF","PERIAPSIS":"538.573","RCS_SIZE":"LARGE","ECCENTRICITY":"0.00016690","PERIOD":"95.437","CENTER_NAME":"EARTH","TIME_SYSTEM":"UTC","GP_ID":"218436127","REF_FRAME":"TEME","FILE":"3666658","EPOCH":"2022-11-21T16:07:50.465568","COUNTRY_CODE":"US","MEAN_ANOMALY":"311.7852","INCLINATION":"53.2213","CLASSIFICATION_TYPE":"U","MEAN_MOTION_DDOT":"0.0000000000000","ARG_OF_PERICENTER":"48.3283","OBJECT_NAME":"STARLINK-4505","LAUNCH_DATE":"2022-08-19","SEMIMAJOR_AXIS":"6917.863","MEAN_MOTION_DOT":"0.00000006","RA_OF_ASC_NODE":"69.1612","BSTAR":"0.00001848400000","NORAD_CAT_ID":"53556","ELEMENT_SET_NO":"999"}];
